[{"OBJECT_NAME":"CENTISPACE-1 S13","OBJECT_ID":"2025-007H","EPOCH":"2026-03-09T23:09:05.132736","MEAN_MOTION":13.82892248,"ECCENTRICITY":0.0009712,"INCLINATION":54.9822,"RA_OF_ASC_NODE":278.4888,"ARG_OF_PERICENTER":239.9953,"MEAN_ANOMALY":120.0041,"EPHEMERIS_TYPE":0,"CLASSIFICATION_TYPE":"U","NORAD_CAT_ID":62582,"ELEMENT_SET_NO":999,"REV_AT_EPOCH":6102,"BSTAR":0.00010239415,"MEAN_MOTION_DOT":-2.9e-7,"MEAN_MOTION_DDOT":0},{"OBJECT_NAME":"FENGYUN 1C DEB","OBJECT_ID":"1999-025BNH","EPOCH":"2026-03-06T13:20:54.573216","MEAN_MOTION":14.02615481,"ECCENTRICITY":0.01052656,"INCLINATION":98.9346,"RA_OF_ASC_NODE":112.3452,"ARG_OF_PERICENTER":120.089,"MEAN_ANOMALY":241.0764,"EPHEMERIS_TYPE":0,"CLASSIFICATION_TYPE":"U","NORAD_CAT_ID":31275,"ELEMENT_SET_NO":999,"REV_AT_EPOCH":96661,"BSTAR":0.0013894229,"MEAN_MOTION_DOT":2.207e-5,"MEAN_MOTION_DDOT":0}]
